[{"OBJECT_NAME":"STARLINK-5374","OBJECT_ID":"2023-046BE","EPOCH":"2026-03-09T22:00:01.999584","MEAN_MOTION":15.09222648,"ECCENTRICITY":8.207e-5,"INCLINATION":42.9999,"RA_OF_ASC_NODE":144.4517,"ARG_OF_PERICENTER":256.2412,"MEAN_ANOMALY":307.4218,"EPHEMERIS_TYPE":0,"CLASSIFICATION_TYPE":"U","NORAD_CAT_ID":56144,"ELEMENT_SET_NO":999,"REV_AT_EPOCH":567,"BSTAR":0.001655471,"MEAN_MOTION_DOT":0.00026669,"MEAN_MOTION_DDOT":0},{"OBJECT_NAME":"H-2A R\/B","OBJECT_ID":"2014-029F","EPOCH":"2026-03-09T22:37:37.455168","MEAN_MOTION":15.13509735,"ECCENTRICITY":0.00104243,"INCLINATION":98.1953,"RA_OF_ASC_NODE":57.5904,"ARG_OF_PERICENTER":119.3216,"MEAN_ANOMALY":240.9056,"EPHEMERIS_TYPE":0,"CLASSIFICATION_TYPE":"U","NORAD_CAT_ID":39771,"ELEMENT_SET_NO":999,"REV_AT_EPOCH":64385,"BSTAR":0.00040980878,"MEAN_MOTION_DOT":7.275e-5,"MEAN_MOTION_DDOT":0}]
